NOAA 15                 
1 25338U 98030A   24129.60909825  .00000377  00000+0  17384-3 0  9990
2 25338  98.5717 157.5576 0011554  82.3362 277.9130 14.26560399351548
NOAA 18                 
1 28654U 05018A   24129.56004066  .00000357  00000+0  21410-3 0  9999
2 28654  98.8744 206.8534 0014583 171.4763 188.6660 14.13191770977579
NOAA 19                 
1 33591U 09005A   24129.57671575  .00000329  00000+0  20083-3 0  9995
2 33591  99.0499 184.9520 0014498  47.7131 312.5267 14.12990870785772
METOP-B                 
1 38771U 12049A   24129.61618601  .00000248  00000+0  13283-3 0  9992
2 38771  98.6300 187.7206 0001765 113.5238 246.6125 14.21522039603933
SARAL                   
1 39086U 13009A   24129.61384755  .00000229  00000+0  10070-3 0  9999
2 39086  98.5513 315.2783 0002844  60.7230 299.4238 14.32400175585411
METOP-C                 
1 43689U 18087A   24129.58275186  .00000240  00000+0  12995-3 0  9998
2 43689  98.7261 189.3167 0002188 170.7108 189.4110 14.21487918285490
ANGELS                  
1 44876U 19092D   24129.49482814  .00008194  00000+0  31801-3 0  9995
2 44876  97.4752 318.0195 0011479 100.2050 260.0484 15.26302527243301
OTB-3-GAZELLE           
1 54023U 22127A   24129.57157956  .00000332  00000+0  11398-3 0  9993
2 54023  98.3429 124.7523 0013220 357.0282   3.0827 14.42071241 83412
EOS-6 (OCEANSAT-3)      
1 54361U 22158A   24129.53315427  .00000429  00000+0  13013-3 0  9990
2 54361  98.3497 227.0999 0001213  74.7748 285.3579 14.46974263 76539
